[{"OBJECT_NAME":"STARLINK-30431","OBJECT_ID":"2023-141N","EPOCH":"2026-03-09T19:50:30.555456","MEAN_MOTION":15.30189985,"ECCENTRICITY":9.658e-5,"INCLINATION":53.1592,"RA_OF_ASC_NODE":283.1577,"ARG_OF_PERICENTER":110.9615,"MEAN_ANOMALY":249.1489,"EPHEMERIS_TYPE":0,"CLASSIFICATION_TYPE":"U","NORAD_CAT_ID":57852,"ELEMENT_SET_NO":999,"REV_AT_EPOCH":14034,"BSTAR":1.9283306e-5,"MEAN_MOTION_DOT":2.12e-6,"MEAN_MOTION_DDOT":0},{"OBJECT_NAME":"FREGAT DEB","OBJECT_ID":"2011-037LS","EPOCH":"2026-03-09T08:54:22.917312","MEAN_MOTION":11.92158719,"ECCENTRICITY":0.15355515,"INCLINATION":51.4914,"RA_OF_ASC_NODE":189.2565,"ARG_OF_PERICENTER":293.3488,"MEAN_ANOMALY":51.3308,"EPHEMERIS_TYPE":0,"CLASSIFICATION_TYPE":"U","NORAD_CAT_ID":46411,"ELEMENT_SET_NO":999,"REV_AT_EPOCH":23768,"BSTAR":0.0033127922,"MEAN_MOTION_DOT":0.00011599,"MEAN_MOTION_DDOT":0}]
